[{"OBJECT_NAME":"STARLINK-30755","OBJECT_ID":"2023-167M","EPOCH":"2026-03-09T06:26:43.179648","MEAN_MOTION":15.27603027,"ECCENTRICITY":0.00041726,"INCLINATION":43.0067,"RA_OF_ASC_NODE":145.5335,"ARG_OF_PERICENTER":301.203,"MEAN_ANOMALY":58.8413,"EPHEMERIS_TYPE":0,"CLASSIFICATION_TYPE":"U","NORAD_CAT_ID":58186,"ELEMENT_SET_NO":999,"REV_AT_EPOCH":13092,"BSTAR":8.7319653e-5,"MEAN_MOTION_DOT":2.142e-5,"MEAN_MOTION_DDOT":0},{"OBJECT_NAME":"GEOSCAN 5 (RS92S5)","OBJECT_ID":"2025-155R","EPOCH":"2026-03-09T22:01:07.273920","MEAN_MOTION":15.30265233,"ECCENTRICITY":0.00070849,"INCLINATION":97.4462,"RA_OF_ASC_NODE":37.7456,"ARG_OF_PERICENTER":154.5846,"MEAN_ANOMALY":205.5745,"EPHEMERIS_TYPE":0,"CLASSIFICATION_TYPE":"U","NORAD_CAT_ID":64891,"ELEMENT_SET_NO":999,"REV_AT_EPOCH":6562,"BSTAR":0.00068639307,"MEAN_MOTION_DOT":0.00020065,"MEAN_MOTION_DDOT":0}]
